{"type": "FeatureCollection", "features": [ {"type": "Feature", "properties": {"norad_id": 37834, "name": "INTELSAT 18 (IS-18)", "group": "intelsat", "lat": 0.022300486146168842, "lon": -11.660012470400462, "alt_km": 35787.58638049393, "timestamp": "2025-12-02T06:27:52.688795+00:00", "meta": {"OBJECT_NAME": "INTELSAT 18 (IS-18)", "OBJECT_ID": "2011-056A", "EPOCH": "2025-12-01T18:05:38.025312", "MEAN_MOTION": 1.00270857, "ECCENTRICITY": 0.000202, "INCLINATION": 0.0193, "RA_OF_ASC_NODE": 320.1587, "ARG_OF_PERICENTER": 289.5607, "MEAN_ANOMALY": 272.5588, "EPHEMERIS_TYPE": 0, "CLASSIFICATION_TYPE": "U", "NORAD_CAT_ID": 37834, "ELEMENT_SET_NO": 999, "REV_AT_EPOCH": 5183, "BSTAR": 0, "MEAN_MOTION_DOT": 7.4e-07, "MEAN_MOTION_DDOT": 0}, "tle": {"line1": "1 37834U 11056A   25335.75391233  .00000074  00000+0  00000+0 0  9998", "line2": "2 37834   0.0193 320.1587 0002020 289.5607 272.5588  1.00270857 51831"}}, "geometry": {"type": "Point", "coordinates": [-11.660012470400462, 0.022300486146168842]}}, {"type": "Feature", "properties": {"norad_id": 38098, "name": "INTELSAT 22 (IS-22)", "group": "intelsat", "lat": -0.026085040688440458, "lon": -119.6165308992969, "alt_km": 35779.28584370201, "timestamp": "2025-12-02T06:27:52.688807+00:00", "meta": {"OBJECT_NAME": "INTELSAT 22 (IS-22)", "OBJECT_ID": "2012-011A", "EPOCH": "2025-12-01T19:17:35.290752", "MEAN_MOTION": 1.00270944, "ECCENTRICITY": 0.0002007, "INCLINATION": 0.0284, "RA_OF_ASC_NODE": 37.8831, "ARG_OF_PERICENTER": 236.7563, "MEAN_ANOMALY": 157.7557, "EPHEMERIS_TYPE": 0, "CLASSIFICATION_TYPE": "U", "NORAD_CAT_ID": 38098, "ELEMENT_SET_NO": 999, "REV_AT_EPOCH": 520, "BSTAR": 0, "MEAN_MOTION_DOT": 0, "MEAN_MOTION_DDOT": 0}, "tle": {"line1": "1 38098U 12011A   25335.80388068  .00000000  00000+0  00000+0 0  9990", "line2": "2 38098   0.0284  37.8831 0002007 236.7563 157.7557  1.00270944  5206"}}, "geometry": {"type": "Point", "coordinates": [-119.6165308992969, -0.026085040688440458]}}, {"type": "Feature", "properties": {"norad_id": 38356, "name": "INTELSAT 19 (IS-19)", "group": "intelsat", "lat": 0.012450256613338363, "lon": -25.625869683876566, "alt_km": 35783.181785797715, "timestamp": "2025-12-02T06:27:52.688819+00:00", "meta": {"OBJECT_NAME": "INTELSAT 19 (IS-19)", "OBJECT_ID": "2012-030A", "EPOCH": "2025-12-01T18:01:38.407008", "MEAN_MOTION": 1.00271615, "ECCENTRICITY": 0.0003388, "INCLINATION": 0.0115, "RA_OF_ASC_NODE": 315.6447, "ARG_OF_PERICENTER": 300.6191, "MEAN_ANOMALY": 251.0309, "EPHEMERIS_TYPE": 0, "CLASSIFICATION_TYPE": "U", "NORAD_CAT_ID": 38356, "ELEMENT_SET_NO": 999, "REV_AT_EPOCH": 4847, "BSTAR": 0, "MEAN_MOTION_DOT": -3.5e-07, "MEAN_MOTION_DDOT": 0}, "tle": {"line1": "1 38356U 12030A   25335.75113897 -.00000035  00000+0  00000+0 0  9997", "line2": "2 38356   0.0115 315.6447 0003388 300.6191 251.0309  1.00271615 48472"}}, "geometry": {"type": "Point", "coordinates": [-25.625869683876566, 0.012450256613338363]}}, {"type": "Feature", "properties": {"norad_id": 38740, "name": "INTELSAT 20 (IS-20)", "group": "intelsat", "lat": -0.030856833676078037, "lon": -123.18820091840335, "alt_km": 35778.24433188837, "timestamp": "2025-12-02T06:27:52.688831+00:00", "meta": {"OBJECT_NAME": "INTELSAT 20 (IS-20)", "OBJECT_ID": "2012-043A", "EPOCH": "2025-12-01T12:25:40.582848", "MEAN_MOTION": 1.00268649, "ECCENTRICITY": 0.00029193, "INCLINATION": 0.0092, "RA_OF_ASC_NODE": 328.1946, "ARG_OF_PERICENTER": 223.3242, "MEAN_ANOMALY": 134.0152, "EPHEMERIS_TYPE": 0, "CLASSIFICATION_TYPE": "U", "NORAD_CAT_ID": 38740, "ELEMENT_SET_NO": 999, "REV_AT_EPOCH": 4876, "BSTAR": 0, "MEAN_MOTION_DOT": 0, "MEAN_MOTION_DDOT": 0}, "tle": {"line1": "1 38740U 12043A   25335.51783082  .00000000  00000+0  00000+0 0  9992", "line2": "2 38740   0.0092 328.1946 0002919 223.3242 134.0152  1.00268649 48764"}}, "geometry": {"type": "Point", "coordinates": [-123.18820091840335, -0.030856833676078037]}}, {"type": "Feature", "properties": {"norad_id": 38749, "name": "INTELSAT 21 (IS-21)", "group": "intelsat", "lat": 0.03219958658784853, "lon": 110.32287942498283, "alt_km": 35790.920984818935, "timestamp": "2025-12-02T06:27:52.688843+00:00", "meta": {"OBJECT_NAME": "INTELSAT 21 (IS-21)", "OBJECT_ID": "2012-045A", "EPOCH": "2025-12-01T11:49:36.536736", "MEAN_MOTION": 1.00274806, "ECCENTRICITY": 0.00019861, "INCLINATION": 0.0575, "RA_OF_ASC_NODE": 92.1177, "ARG_OF_PERICENTER": 149.8881, "MEAN_ANOMALY": 308.0219, "EPHEMERIS_TYPE": 0, "CLASSIFICATION_TYPE": "U", "NORAD_CAT_ID": 38749, "ELEMENT_SET_NO": 999, "REV_AT_EPOCH": 4854, "BSTAR": 0, "MEAN_MOTION_DOT": -2.63e-06, "MEAN_MOTION_DDOT": 0}, "tle": {"line1": "1 38749U 12045A   25335.49278399 -.00000263  00000+0  00000+0 0  9992", "line2": "2 38749   0.0575  92.1177 0001986 149.8881 308.0219  1.00274806 48542"}}, "geometry": {"type": "Point", "coordinates": [110.32287942498283, 0.03219958658784853]}}, {"type": "Feature", "properties": {"norad_id": 38867, "name": "INTELSAT 23 (IS-23)", "group": "intelsat", "lat": 0.012294502283966585, "lon": 115.29937866385282, "alt_km": 35787.245624974734, "timestamp": "2025-12-02T06:27:52.688855+00:00", "meta": {"OBJECT_NAME": "INTELSAT 23 (IS-23)", "OBJECT_ID": "2012-057A", "EPOCH": "2025-12-01T18:41:53.711232", "MEAN_MOTION": 1.00270713, "ECCENTRICITY": 0.0001777, "INCLINATION": 0.0436, "RA_OF_ASC_NODE": 125.9, "ARG_OF_PERICENTER": 85.2924, "MEAN_ANOMALY": 87.179, "EPHEMERIS_TYPE": 0, "CLASSIFICATION_TYPE": "U", "NORAD_CAT_ID": 38867, "ELEMENT_SET_NO": 999, "REV_AT_EPOCH": 4797, "BSTAR": 0, "MEAN_MOTION_DOT": -2.63e-06, "MEAN_MOTION_DDOT": 0}, "tle": {"line1": "1 38867U 12057A   25335.77909388 -.00000263  00000+0  00000+0 0  9996", "line2": "2 38867   0.0436 125.9000 0001777  85.2924  87.1790  1.00270713 47976"}}, "geometry": {"type": "Point", "coordinates": [115.29937866385282, 0.012294502283966585]}}, {"type": "Feature", "properties": {"norad_id": 39360, "name": "FM-6", "group": "intelsat", "lat": -0.01618994311004997, "lon": 52.13325609025756, "alt_km": 35793.046277835696, "timestamp": "2025-12-02T06:27:52.688866+00:00", "meta": {"OBJECT_NAME": "FM-6", "OBJECT_ID": "2013-058A", "EPOCH": "2025-12-01T16:41:08.615904", "MEAN_MOTION": 1.00270134, "ECCENTRICITY": 0.0003006, "INCLINATION": 0.0028, "RA_OF_ASC_NODE": 104.685, "ARG_OF_PERICENTER": 68.3464, "MEAN_ANOMALY": 31.9137, "EPHEMERIS_TYPE": 0, "CLASSIFICATION_TYPE": "U", "NORAD_CAT_ID": 39360, "ELEMENT_SET_NO": 999, "REV_AT_EPOCH": 4409, "BSTAR": 0, "MEAN_MOTION_DOT": 5e-08, "MEAN_MOTION_DDOT": 0}, "tle": {"line1": "1 39360U 13058A   25335.69523861  .00000005  00000+0  00000+0 0  9999", "line2": "2 39360   0.0028 104.6850 0003006  68.3464  31.9137  1.00270134 44096"}}, "geometry": {"type": "Point", "coordinates": [52.13325609025756, -0.01618994311004997]}}, {"type": "Feature", "properties": {"norad_id": 40271, "name": "INTELSAT 30 (IS-30)", "group": "intelsat", "lat": 0.028409168092720448, "lon": 73.27096642002425, "alt_km": 35781.24372841865, "timestamp": "2025-12-02T06:27:52.688878+00:00", "meta": {"OBJECT_NAME": "INTELSAT 30 (IS-30)", "OBJECT_ID": "2014-062A", "EPOCH": "2025-12-01T11:39:00.052128", "MEAN_MOTION": 1.00271598, "ECCENTRICITY": 0.0001213, "INCLINATION": 0.0114, "RA_OF_ASC_NODE": 352.6189, "ARG_OF_PERICENTER": 97.4204, "MEAN_ANOMALY": 60.2729, "EPHEMERIS_TYPE": 0, "CLASSIFICATION_TYPE": "U", "NORAD_CAT_ID": 40271, "ELEMENT_SET_NO": 999, "REV_AT_EPOCH": 480, "BSTAR": 0, "MEAN_MOTION_DOT": -1.29e-06, "MEAN_MOTION_DDOT": 0}, "tle": {"line1": "1 40271U 14062A   25335.48541727 -.00000129  00000+0  00000+0 0  9994", "line2": "2 40271   0.0114 352.6189 0001213  97.4204  60.2729  1.00271598  4800"}}, "geometry": {"type": "Point", "coordinates": [73.27096642002425, 0.028409168092720448]}}, {"type": "Feature", "properties": {"norad_id": 40333, "name": "DIRECTV 14", "group": "intelsat", "lat": 0.01696786408969086, "lon": 69.09238951416248, "alt_km": 35787.71653424994, "timestamp": "2025-12-02T06:27:52.688889+00:00", "meta": {"OBJECT_NAME": "DIRECTV 14", "OBJECT_ID": "2014-078B", "EPOCH": "2025-12-01T15:03:17.987328", "MEAN_MOTION": 1.00271508, "ECCENTRICITY": 4.62e-05, "INCLINATION": 0.0022, "RA_OF_ASC_NODE": 1.7567, "ARG_OF_PERICENTER": 209.2635, "MEAN_ANOMALY": 346.3273, "EPHEMERIS_TYPE": 0, "CLASSIFICATION_TYPE": "U", "NORAD_CAT_ID": 40333, "ELEMENT_SET_NO": 999, "REV_AT_EPOCH": 4006, "BSTAR": 0, "MEAN_MOTION_DOT": -1.04e-06, "MEAN_MOTION_DDOT": 0}, "tle": {"line1": "1 40333U 14078B   25335.62729152 -.00000104  00000+0  00000+0 0  9999", "line2": "2 40333   0.0022   1.7567 0000462 209.2635 346.3273  1.00271508 40066"}}, "geometry": {"type": "Point", "coordinates": [69.09238951416248, 0.01696786408969086]}}, {"type": "Feature", "properties": {"norad_id": 40663, "name": "DIRECTV 15", "group": "intelsat", "lat": 0.017086959223501223, "lon": 65.44490154185513, "alt_km": 35787.449361668434, "timestamp": "2025-12-02T06:27:52.688900+00:00", "meta": {"OBJECT_NAME": "DIRECTV 15", "OBJECT_ID": "2015-026A", "EPOCH": "2025-12-01T15:02:03.106176", "MEAN_MOTION": 1.00270344, "ECCENTRICITY": 2.26e-05, "INCLINATION": 0.0414, "RA_OF_ASC_NODE": 104.2593, "ARG_OF_PERICENTER": 141.9124, "MEAN_ANOMALY": 307.2148, "EPHEMERIS_TYPE": 0, "CLASSIFICATION_TYPE": "U", "NORAD_CAT_ID": 40663, "ELEMENT_SET_NO": 999, "REV_AT_EPOCH": 3848, "BSTAR": 0, "MEAN_MOTION_DOT": -8.1e-07, "MEAN_MOTION_DDOT": 0}, "tle": {"line1": "1 40663U 15026A   25335.62642484 -.00000081  00000+0  00000+0 0  9995", "line2": "2 40663   0.0414 104.2593 0000226 141.9124 307.2148  1.00270344 38485"}}, "geometry": {"type": "Point", "coordinates": [65.44490154185513, 0.017086959223501223]}}]}